[{"OBJECT_NAME":"NUSHSAT1","OBJECT_ID":"2025-052B","EPOCH":"2026-03-09T15:31:41.225952","MEAN_MOTION":15.31903202,"ECCENTRICITY":0.0005501,"INCLINATION":97.4095,"RA_OF_ASC_NODE":325.7239,"ARG_OF_PERICENTER":84.7512,"MEAN_ANOMALY":275.4357,"EPHEMERIS_TYPE":0,"CLASSIFICATION_TYPE":"U","NORAD_CAT_ID":63211,"ELEMENT_SET_NO":999,"REV_AT_EPOCH":5488,"BSTAR":0.00074857,"MEAN_MOTION_DOT":0.00023034,"MEAN_MOTION_DDOT":0},{"OBJECT_NAME":"STARLINK-35637","OBJECT_ID":"2025-237S","EPOCH":"2026-03-09T21:51:38.100096","MEAN_MOTION":15.30214613,"ECCENTRICITY":0.00021241,"INCLINATION":53.1607,"RA_OF_ASC_NODE":38.6517,"ARG_OF_PERICENTER":100.0193,"MEAN_ANOMALY":260.1047,"EPHEMERIS_TYPE":0,"CLASSIFICATION_TYPE":"U","NORAD_CAT_ID":66130,"ELEMENT_SET_NO":999,"REV_AT_EPOCH":2264,"BSTAR":0.00065822662,"MEAN_MOTION_DOT":0.00019195,"MEAN_MOTION_DDOT":0}]
